start=new Date('2023-02-06T00:00:00.000Z').valueOf();
sats=[{"COUNTRY_CODE":"US","GP_ID":"224494340","OBJECT_NAME":"STARLINK-2572","INCLINATION":"53.0555","MEAN_MOTION":"15.06397746","PERIAPSIS":"546.132","APOAPSIS":"548.309","EPOCH":"2023-02-05T07:54:50.162400","MEAN_MOTION_DOT":"0.00000278","TLE_LINE1":"1 48372U 21038V   23036.32974725  .00000278  00000-0  37550-4 0  9992","SITE":"AFETR","LAUNCH_DATE":"2021-05-04","CLASSIFICATION_TYPE":"U","NORAD_CAT_ID":"48372","PERIOD":"95.592","MEAN_ELEMENT_THEORY":"SGP4","RCS_SIZE":"LARGE","ARG_OF_PERICENTER":"99.2562","FILE":"3773728","CENTER_NAME":"EARTH","TLE_LINE2":"2 48372  53.0555  17.0192 0001572  99.2562 260.8605 15.06397746 97097","ELEMENT_SET_NO":"999","ECCENTRICITY":"0.00015720","TIME_SYSTEM":"UTC","DECAY_DATE":null,"OBJECT_ID":"2021-038V","EPHEMERIS_TYPE":"0","REV_AT_EPOCH":"9709","MEAN_ANOMALY":"260.8605","MEAN_MOTION_DDOT":"0.0000000000000","BSTAR":"0.00003755000000","SEMIMAJOR_AXIS":"6925.355","OBJECT_TYPE":"PAYLOAD","REF_FRAME":"TEME","RA_OF_ASC_NODE":"17.0192"},{"ARG_OF_PERICENTER":"97.9392","FILE":"3774172","CENTER_NAME":"EARTH","TLE_LINE2":"2 48373  53.0548  14.3516 0001575  97.9392 262.1776 15.06397954 97184","TIME_SYSTEM":"UTC","ELEMENT_SET_NO":"999","ECCENTRICITY":"0.00015750","REV_AT_EPOCH":"9718","DECAY_DATE":null,"OBJECT_ID":"2021-038W","EPHEMERIS_TYPE":"0","MEAN_MOTION_DDOT":"0.0000000000000","BSTAR":"0.00023502000000","MEAN_ANOMALY":"262.1776","RA_OF_ASC_NODE":"14.3516","REF_FRAME":"TEME","SEMIMAJOR_AXIS":"6925.355","OBJECT_TYPE":"PAYLOAD","GP_ID":"224557221","OBJECT_NAME":"STARLINK-2609","COUNTRY_CODE":"US","INCLINATION":"53.0548","PERIAPSIS":"546.129","MEAN_MOTION":"15.06397954","MEAN_MOTION_DOT":"0.00003221","TLE_LINE1":"1 48373U 21038W   23036.92318316  .00003221  00000-0  23502-3 0  9999","APOAPSIS":"548.311","EPOCH":"2023-02-05T22:09:23.025024","LAUNCH_DATE":"2021-05-04","SITE":"AFETR","CLASSIFICATION_TYPE":"U","PERIOD":"95.592","NORAD_CAT_ID":"48373","RCS_SIZE":"LARGE","MEAN_ELEMENT_THEORY":"SGP4"},{"CLASSIFICATION_TYPE":"U","NORAD_CAT_ID":"48374","PERIOD":"95.592","MEAN_ELEMENT_THEORY":"SGP4","RCS_SIZE":"LARGE","COUNTRY_CODE":"US","OBJECT_NAME":"STARLINK-2604","GP_ID":"224555983","PERIAPSIS":"546.193","MEAN_MOTION":"15.06397107","INCLINATION":"53.0549","EPOCH":"2023-02-05T22:02:42.836640","APOAPSIS":"548.252","TLE_LINE1":"1 48374U 21038X   23036.91855135  .00001058  00000-0  89936-4 0  9994","MEAN_MOTION_DOT":"0.00001058","SITE":"AFETR","LAUNCH_DATE":"2021-05-04","ECCENTRICITY":"0.00014860","ELEMENT_SET_NO":"999","TIME_SYSTEM":"UTC","EPHEMERIS_TYPE":"0","DECAY_DATE":null,"OBJECT_ID":"2021-038X","REV_AT_EPOCH":"9718","MEAN_ANOMALY":"267.6581","BSTAR":"0.00008993600000","MEAN_MOTION_DDOT":"0.0000000000000","SEMIMAJOR_AXIS":"6925.357","OBJECT_TYPE":"PAYLOAD","RA_OF_ASC_NODE":"14.3758","REF_FRAME":"TEME","ARG_OF_PERICENTER":"92.4578","FILE":"3774172","CENTER_NAME":"EARTH","TLE_LINE2":"2 48374  53.0549  14.3758 0001486  92.4578 267.6581 15.06397107 97185"},{"ARG_OF_PERICENTER":"97.1531","FILE":"3773934","CENTER_NAME":"EARTH","TLE_LINE2":"2 48375  53.0551  16.7741 0001390  97.1531 262.9616 15.06401382 97696","TIME_SYSTEM":"UTC","ELEMENT_SET_NO":"999","ECCENTRICITY":"0.00013900","REV_AT_EPOCH":"9769","DECAY_DATE":null,"OBJECT_ID":"2021-038Y","EPHEMERIS_TYPE":"0","MEAN_MOTION_DDOT":"0.0000000000000","BSTAR":"0.00002622600000","MEAN_ANOMALY":"262.9616","RA_OF_ASC_NODE":"16.7741","REF_FRAME":"TEME","SEMIMAJOR_AXIS":"6925.344","OBJECT_TYPE":"PAYLOAD","GP_ID":"224530069","OBJECT_NAME":"STARLINK-2603","COUNTRY_CODE":"US","INCLINATION":"53.0551","MEAN_MOTION":"15.06401382","PERIAPSIS":"546.247","MEAN_MOTION_DOT":"0.00000109","TLE_LINE1":"1 48375U 21038Y   23036.38503504  .00000109  00000-0  26226-4 0  9995","APOAPSIS":"548.172","EPOCH":"2023-02-05T09:14:27.027456","LAUNCH_DATE":"2021-05-04","SITE":"AFETR","CLASSIFICATION_TYPE":"U","PERIOD":"95.592","NORAD_CAT_ID":"48375","RCS_SIZE":"LARGE","MEAN_ELEMENT_THEORY":"SGP4"},{"CLASSIFICATION_TYPE":"U","NORAD_CAT_ID":"48376","PERIOD":"95.592","MEAN_ELEMENT_THEORY":"SGP4","RCS_SIZE":"LARGE","COUNTRY_CODE":"US","GP_ID":"224530588","OBJECT_NAME":"STARLINK-2610","INCLINATION":"53.0555","PERIAPSIS":"546.112","MEAN_MOTION":"15.06399990","APOAPSIS":"548.315","EPOCH":"2023-02-05T07:33:36.007776","MEAN_MOTION_DOT":"-0.00000023","TLE_LINE1":"1 48376U 21038Z   23036.31500009 -.00000023  00000-0  17358-4 0  9998","SITE":"AFETR","LAUNCH_DATE":"2021-05-04","ELEMENT_SET_NO":"999","ECCENTRICITY":"0.00015900","TIME_SYSTEM":"UTC","DECAY_DATE":null,"OBJECT_ID":"2021-038Z","EPHEMERIS_TYPE":"0","REV_AT_EPOCH":"9768","MEAN_ANOMALY":"260.4847","MEAN_MOTION_DDOT":"0.0000000000000","BSTAR":"0.00001735800000","SEMIMAJOR_AXIS":"6925.349","OBJECT_TYPE":"PAYLOAD","REF_FRAME":"TEME","RA_OF_ASC_NODE":"17.0863","ARG_OF_PERICENTER":"99.6322","FILE":"3773935","CENTER_NAME":"EARTH","TLE_LINE2":"2 48376  53.0555  17.0863 0001590  99.6322 260.4847 15.06399990 97686"},{"MEAN_ELEMENT_THEORY":"SGP4","RCS_SIZE":"LARGE","NORAD_CAT_ID":"48377","PERIOD":"95.593","CLASSIFICATION_TYPE":"U","SITE":"AFETR","LAUNCH_DATE":"2021-05-04","EPOCH":"2023-02-05T20:12:36.982944","APOAPSIS":"548.281","TLE_LINE1":"1 48377U 21038AA  23036.84209471  .00001164  00000-0  97052-4 0  9991","MEAN_MOTION_DOT":"0.00001164","MEAN_MOTION":"15.06392136","PERIAPSIS":"546.194","INCLINATION":"53.0551","COUNTRY_CODE":"US","OBJECT_NAME":"STARLINK-2499","GP_ID":"224557721","OBJECT_TYPE":"PAYLOAD","SEMIMAJOR_AXIS":"6925.373","REF_FRAME":"TEME","RA_OF_ASC_NODE":"14.7178","MEAN_ANOMALY":"264.0667","BSTAR":"0.00009705200000","MEAN_MOTION_DDOT":"0.0000000000000","EPHEMERIS_TYPE":"0","OBJECT_ID":"2021-038AA","DECAY_DATE":null,"REV_AT_EPOCH":"9717","ECCENTRICITY":"0.00015070","ELEMENT_SET_NO":"999","TIME_SYSTEM":"UTC","TLE_LINE2":"2 48377  53.0551  14.7178 0001507  96.0493 264.0667 15.06392136 97173","FILE":"3774172","CENTER_NAME":"EARTH","ARG_OF_PERICENTER":"96.0493"},{"PERIAPSIS":"546.328","MEAN_MOTION":"15.06405026","INCLINATION":"53.0548","COUNTRY_CODE":"US","OBJECT_NAME":"STARLINK-2526","GP_ID":"224493339","SITE":"AFETR","LAUNCH_DATE":"2021-05-04","EPOCH":"2023-02-05T08:58:31.125504","APOAPSIS":"548.068","TLE_LINE1":"1 48378U 21038AB  23036.37397136  .00000861  00000-0  76704-4 0  9990","MEAN_MOTION_DOT":"0.00000861","CLASSIFICATION_TYPE":"U","MEAN_ELEMENT_THEORY":"SGP4","RCS_SIZE":"LARGE","NORAD_CAT_ID":"48378","PERIOD":"95.592","ARG_OF_PERICENTER":"89.5543","TLE_LINE2":"2 48378  53.0548  16.8298 0001256  89.5543 270.5590 15.06405026 97103","CENTER_NAME":"EARTH","FILE":"3773728","EPHEMERIS_TYPE":"0","DECAY_DATE":null,"OBJECT_ID":"2021-038AB","REV_AT_EPOCH":"9710","ECCENTRICITY":"0.00012560","ELEMENT_SET_NO":"999","TIME_SYSTEM":"UTC","SEMIMAJOR_AXIS":"6925.333","OBJECT_TYPE":"PAYLOAD","RA_OF_ASC_NODE":"16.8298","REF_FRAME":"TEME","MEAN_ANOMALY":"270.5590","BSTAR":"0.00007670400000","MEAN_MOTION_DDOT":"0.0000000000000"},{"ARG_OF_PERICENTER":"95.0094","CENTER_NAME":"EARTH","FILE":"3773728","TLE_LINE2":"2 48379  53.0546  16.8417 0001558  95.0094 265.1073 15.06391092 97106","TIME_SYSTEM":"UTC","ELEMENT_SET_NO":"999","ECCENTRICITY":"0.00015580","REV_AT_EPOCH":"9710","DECAY_DATE":null,"OBJECT_ID":"2021-038AC","EPHEMERIS_TYPE":"0","MEAN_MOTION_DDOT":"0.0000000000000","BSTAR":"0.00004692200000","MEAN_ANOMALY":"265.1073","REF_FRAME":"TEME","RA_OF_ASC_NODE":"16.8417","SEMIMAJOR_AXIS":"6925.376","OBJECT_TYPE":"PAYLOAD","GP_ID":"224493090","OBJECT_NAME":"STARLINK-2612","COUNTRY_CODE":"US","INCLINATION":"53.0546","MEAN_MOTION":"15.06391092","PERIAPSIS":"546.162","MEAN_MOTION_DOT":"0.00000417","TLE_LINE1":"1 48379U 21038AC  23036.37029729  .00000417  00000-0  46922-4 0  9997","APOAPSIS":"548.320","EPOCH":"2023-02-05T08:53:13.685856","LAUNCH_DATE":"2021-05-04","SITE":"AFETR","CLASSIFICATION_TYPE":"U","PERIOD":"95.593","NORAD_CAT_ID":"48379","RCS_SIZE":"LARGE","MEAN_ELEMENT_THEORY":"SGP4"},{"REV_AT_EPOCH":"9709","EPHEMERIS_TYPE":"0","OBJECT_ID":"2021-038AD","DECAY_DATE":null,"TIME_SYSTEM":"UTC","ECCENTRICITY":"0.00015650","ELEMENT_SET_NO":"999","RA_OF_ASC_NODE":"17.0307","REF_FRAME":"TEME","SEMIMAJOR_AXIS":"6925.359","OBJECT_TYPE":"PAYLOAD","BSTAR":"-0.00000015597000","MEAN_MOTION_DDOT":"0.0000000000000","MEAN_ANOMALY":"261.3619","ARG_OF_PERICENTER":"98.7547","TLE_LINE2":"2 48380  53.0545  17.0307 0001565  98.7547 261.3619 15.06396700 97092","FILE":"3773728","CENTER_NAME":"EARTH","CLASSIFICATION_TYPE":"U","RCS_SIZE":"LARGE","MEAN_ELEMENT_THEORY":"SGP4","PERIOD":"95.592","NORAD_CAT_ID":"48380","MEAN_MOTION":"15.06396700","PERIAPSIS":"546.140","INCLINATION":"53.0545","OBJECT_NAME":"STARLINK-2614","GP_ID":"224494341","COUNTRY_CODE":"US","LAUNCH_DATE":"2021-05-04","SITE":"AFETR","TLE_LINE1":"1 48380U 21038AD  23036.32880417 -.00000284  00000-0 -15597-6 0  9993","MEAN_MOTION_DOT":"-0.00000284","EPOCH":"2023-02-05T07:53:28.680288","APOAPSIS":"548.307"},{"PERIOD":"95.593","NORAD_CAT_ID":"48381","RCS_SIZE":"LARGE","MEAN_ELEMENT_THEORY":"SGP4","CLASSIFICATION_TYPE":"U","TLE_LINE1":"1 48381U 21038AE  23036.89738310  .00000378  00000-0  44310-4 0  9995","MEAN_MOTION_DOT":"0.00000378","EPOCH":"2023-02-05T21:32:13.899840","APOAPSIS":"548.162","LAUNCH_DATE":"2021-05-04","SITE":"AFETR","OBJECT_NAME":"STARLINK-2630","GP_ID":"224557222","COUNTRY_CODE":"US","MEAN_MOTION":"15.06391794","PERIAPSIS":"546.316","INCLINATION":"53.0529","BSTAR":"0.00004431000000","MEAN_MOTION_DDOT":"0.0000000000000","MEAN_ANOMALY":"273.9995","RA_OF_ASC_NODE":"14.4851","REF_FRAME":"TEME","OBJECT_TYPE":"PAYLOAD","SEMIMAJOR_AXIS":"6925.374","TIME_SYSTEM":"UTC","ECCENTRICITY":"0.00013330","ELEMENT_SET_NO":"999","REV_AT_EPOCH":"9718","EPHEMERIS_TYPE":"0","DECAY_DATE":null,"OBJECT_ID":"2021-038AE","FILE":"3774172","CENTER_NAME":"EARTH","TLE_LINE2":"2 48381  53.0529  14.4851 0001333  86.1146 273.9995 15.06391794 97183","ARG_OF_PERICENTER":"86.1146"}];
